NORAD_CAT_ID,OBJECT_NAME,OBJECT_TYPE,EPOCH,MEAN_MOTION,ECCENTRICITY,INCLINATION,RA_OF_ASC_NODE,ARG_OF_PERICENTER,MEAN_ANOMALY,BSTAR,MEAN_MOTION_DOT,MEAN_MOTION_DDOT,TLE_LINE0,TLE_LINE1,TLE_LINE2,SEMIMAJOR_AXIS,PERIOD,APOGEE,PERIGEE,DECAYED
55784.0,STARLINK-5797,PAYLOAD,2023-03-20 22:00:01,15.71355735,0.0003352,69.9909,106.9457,267.3301,240.839,-0.0071953,-0.00832823,0.0,0 STARLINK-5797,1 55784U 23028AV  23079.91668981 -.00832823  00000-0 -71953-2 0  9998,2 55784  69.9909 106.9457 0003352 267.3301 240.8390 15.71355735  3360,6733.158,91.641,357.28,352.766,0.0
55784.0,STARLINK-5797,PAYLOAD,2023-03-21 06:00:00,15.70726217,0.0003334,69.9918,106.007,270.5704,322.2316,-0.0078528,-0.00880055,0.0,0 STARLINK-5797,1 55784U 23028AV  23080.25001157 -.00880055  00000-0 -78528-2 0  9998,2 55784  69.9918 106.0070 0003334 270.5704 322.2316 15.70726217  3410,6734.957,91.677,359.068,354.577,0.0
55784.0,STARLINK-5797,PAYLOAD,2023-03-21 14:00:01,15.6998398,0.0003252,69.9929,105.0687,274.1437,42.6328,-0.00084339,-0.00100665,0.0,0 STARLINK-5797,1 55784U 23028AV  23080.58335648 -.00100665  00000-0 -84339-3 0  9999,2 55784  69.9929 105.0687 0003252 274.1437  42.6328 15.69983980  3468,6737.08,91.721,361.136,356.754,0.0
55784.0,STARLINK-5797,PAYLOAD,2023-03-21 22:00:00,15.69865161,0.0003297,69.9948,104.1309,265.8096,134.2809,0.00095808,0.00116313,0.0,0 STARLINK-5797,1 55784U 23028AV  23080.91667824  .00116313  00000-0  95808-3 0  9998,2 55784  69.9948 104.1309 0003297 265.8096 134.2809 15.69865161  1300,6737.42,91.728,361.506,357.063,0.0
55784.0,STARLINK-5797,PAYLOAD,2023-03-22 06:00:00,15.69957674,0.0003324,69.9973,103.1935,269.0782,214.3176,-0.00052917,-0.0006345,0.0,0 STARLINK-5797,1 55784U 23028AV  23081.25001157 -.00063450  00000-0 -52917-3 0  9996,2 55784  69.9973 103.1935 0003324 269.0782 214.3176 15.69957674  3570,6737.155,91.722,361.26,356.781,0.0
55784.0,STARLINK-5797,PAYLOAD,2023-03-22 22:00:00,15.69858414,0.0003321,70.0004,101.3186,268.953,21.146,0.0010741,0.00130611,0.0,0 STARLINK-5797,1 55784U 23028AV  23081.91667824  .00130611  00000-0  10741-2 0  9998,2 55784  70.0004 101.3186 0003321 268.9530  21.1460 15.69858414  3675,6737.439,91.728,361.542,357.067,0.0
55784.0,STARLINK-5797,PAYLOAD,2023-03-23 06:00:00,15.6995083,0.0003394,70.0011,100.3813,272.3498,101.0649,-0.00057394,-0.00068739,0.0,0 STARLINK-5797,1 55784U 23028AV  23082.25001157 -.00068739  00000-0 -57394-3 0  9996,2 55784  70.0011 100.3813 0003394 272.3498 101.0649 15.69950830  3730,6737.175,91.723,361.326,356.753,0.0
55784.0,STARLINK-5797,PAYLOAD,2023-03-23 14:00:01,15.6994146,0.0003296,70.0009,99.444,277.0234,179.7656,-0.0002078,-0.00025142,0.0,0 STARLINK-5797,1 55784U 23028AV  23082.58335648 -.00025142  00000-0 -20780-3 0  9997,2 55784  70.0009  99.4440 0003296 277.0234 179.7656 15.69941460  1302,6737.201,91.723,361.287,356.846,0.0
55784.0,STARLINK-5797,PAYLOAD,2023-03-24 17:00:11,15.69886254,0.0003493,70.0007,96.2808,275.5236,58.166,0.00022468,0.00026848,0.0,0 STARLINK-5797,1 55784U 23028AV  23083.70846065  .00026848  00000-0  22468-3 0  9999,2 55784  70.0007  96.2808 0003493 275.5236  58.1660 15.69886254  3954,6737.359,91.726,361.578,356.871,0.0
55784.0,STARLINK-5797,PAYLOAD,2023-03-24 22:00:01,15.6985943,0.0003492,70.0008,95.6955,270.5515,159.5927,0.0012412,0.0015135,0.0,0 STARLINK-5797,1 55784U 23028AV  23083.91668981  .00151350  00000-0  12412-2 0  9995,2 55784  70.0008  95.6955 0003492 270.5515 159.5927 15.69859430  1300,6737.436,91.728,361.654,356.948,0.0
55784.0,STARLINK-5797,PAYLOAD,2023-03-25 03:49:11,15.69906284,0.0003088,70.0008,95.0138,267.8287,92.2556,3.2569e-05,3.702e-05,0.0,0 STARLINK-5797,1 55784U 23028AV  23084.15916579  .00003702  00000-0  32569-4 0  9995,2 55784  70.0008  95.0138 0003088 267.8287  92.2556 15.69906284  4037,6737.302,91.725,361.248,357.087,0.0
55784.0,STARLINK-5797,PAYLOAD,2023-03-25 17:34:57,15.69949304,0.000338,70.001,93.402,269.0945,90.9864,0.00018449,0.00022052,0.0,0 STARLINK-5797,1 55784U 23028AV  23084.73260592  .00022052  00000-0  18449-3 0  9995,2 55784  70.0010  93.4020 0003380 269.0945  90.9864 15.69949304  4129,6737.179,91.723,361.321,356.767,0.0
55784.0,STARLINK-5797,PAYLOAD,2023-03-26 04:17:13,15.69930899,0.0003684,70.0004,92.1483,267.1879,92.8896,8.7537e-05,0.00010329,0.0,0 STARLINK-5797,1 55784U 23028AV  23085.17862591  .00010329  00000-0  87537-4 0  9990,2 55784  70.0004  92.1483 0003684 267.1879  92.8896 15.69930899  4195,6737.232,91.724,361.579,356.615,0.0
55784.0,STARLINK-5797,PAYLOAD,2023-03-26 10:24:13,15.69918986,0.0003076,70.0012,91.4326,263.0914,96.9932,8.1477e-05,9.593e-05,0.0,0 STARLINK-5797,1 55784U 23028AV  23085.43349517  .00009593  00000-0  81477-4 0  9995,2 55784  70.0012  91.4326 0003076 263.0914  96.9932 15.69918986  4236,6737.266,91.724,361.203,357.058,0.0
55784.0,STARLINK-5797,PAYLOAD,2023-03-26 18:02:59,15.69932303,0.0003941,70.0014,90.5361,264.362,95.7127,4.2062e-05,4.85e-05,0.0,0 STARLINK-5797,1 55784U 23028AV  23085.75207351  .00004850  00000-0  42062-4 0  9997,2 55784  70.0014  90.5361 0003941 264.3620  95.7127 15.69932303  4283,6737.228,91.724,361.748,356.438,0.0
55784.0,STARLINK-5797,PAYLOAD,2023-03-27 14:00:01,15.69931514,0.0003334,70.0013,88.1985,268.8084,107.9735,-0.00021468,-0.00025954,0.0,0 STARLINK-5797,1 55784U 23028AV  23086.58334491 -.00025954  00000-0 -21468-3 0  9991,2 55784  70.0013  88.1985 0003334 268.8084 107.9735 15.69931514  4415,6737.23,91.724,361.341,356.849,0.0
55784.0,STARLINK-5797,PAYLOAD,2023-03-27 22:00:00,15.69905329,0.000338,70.0016,87.2617,262.44,197.6774,0.00040415,0.00048627,0.0,0 STARLINK-5797,1 55784U 23028AV  23086.91667824  .00048627  00000-0  40415-3 0  9990,2 55784  70.0016  87.2617 0003380 262.4400 197.6774 15.69905329  1302,6737.305,91.725,361.447,356.893,0.0
55784.0,STARLINK-5797,PAYLOAD,2023-03-28 03:41:31,15.69933921,0.0002944,70.0026,86.5975,259.1558,100.9306,1.7842e-05,1.934e-05,0.0,0 STARLINK-5797,1 55784U 23028AV  23087.15383809  .00001934  00000-0  17842-4 0  9994,2 55784  70.0026  86.5975 0002944 259.1558 100.9306 15.69933921  4506,6737.223,91.724,361.071,357.105,0.0
55784.0,STARLINK-5797,PAYLOAD,2023-03-28 09:48:32,15.69924635,0.000294,70.0022,85.8806,257.932,102.1546,1.3148e-05,1.369e-05,0.0,0 STARLINK-5797,1 55784U 23028AV  23087.40870911  .00001369  00000-0  13148-4 0  9994,2 55784  70.0022  85.8806 0002940 257.9320 102.1546 15.69924635  4542,6737.25,91.724,361.095,357.134,0.0
55784.0,STARLINK-5797,PAYLOAD,2023-03-28 17:27:16,15.69958422,0.0002772,70.0023,84.9851,281.2683,78.8201,8.34e-05,9.841e-05,0.0,0 STARLINK-5797,1 55784U 23028AV  23087.72727814  .00009841  00000-0  83400-4 0  9993,2 55784  70.0023  84.9851 0002772 281.2683  78.8201 15.69958422  4591,6737.153,91.722,360.885,357.15,0.0
55784.0,STARLINK-5797,PAYLOAD,2023-03-29 01:06:03,15.69905798,0.0003723,70.0028,84.0899,272.4174,87.6595,-2.03e-06,-4.57e-06,0.0,0 STARLINK-5797,1 55784U 23028AV  23088.04587923 -.00000457  00000-0 -20300-5 0  9991,2 55784  70.0028  84.0899 0003723 272.4174  87.6595 15.69905798  4641,6737.304,91.725,361.677,356.66,0.0
55784.0,STARLINK-5797,PAYLOAD,2023-03-29 08:44:49,15.69917162,0.0003345,70.0008,83.1928,261.4469,98.6348,-1.4195e-05,-1.919e-05,0.0,0 STARLINK-5797,1 55784U 23028AV  23088.36445901 -.00001919  00000-0 -14195-4 0  9993,2 55784  70.0008  83.1928 0003345 261.4469  98.6348 15.69917162  4698,6737.271,91.725,361.39,356.882,0.0
55784.0,STARLINK-5797,PAYLOAD,2023-03-29 11:48:19,15.6992461,0.000336,70.0016,82.8349,260.5123,99.5693,1.1074e-05,1.119e-05,0.0,0 STARLINK-5797,1 55784U 23028AV  23088.49189111  .00001119  00000-0  11074-4 0  9998,2 55784  70.0016  82.8349 0003360 260.5123  99.5693 15.69924610  4716,6737.25,91.724,361.378,356.851,0.0
55784.0,STARLINK-5797,PAYLOAD,2023-03-30 01:34:05,15.69928547,0.0002886,70.0024,81.2233,266.7966,93.29,3.463e-05,3.954e-05,0.0,0 STARLINK-5797,1 55784U 23028AV  23089.06534280  .00003954  00000-0  34630-4 0  9995,2 55784  70.0024  81.2233 0002886 266.7966  93.2900 15.69928547  4800,6737.238,91.724,361.048,357.159,0.0
55784.0,STARLINK-5797,PAYLOAD,2023-03-30 10:44:36,15.6992453,0.0002939,70.0024,80.1483,260.7114,99.375,4.003e-05,4.603e-05,0.0,0 STARLINK-5797,1 55784U 23028AV  23089.44764648  .00004603  00000-0  40030-4 0  9993,2 55784  70.0024  80.1483 0002939 260.7114  99.3750 15.69924530  4867,6737.25,91.724,361.095,357.135,0.0
55784.0,STARLINK-5797,PAYLOAD,2023-03-31 11:12:38,15.6993199,0.0002429,70.0019,77.2815,305.8692,54.2278,9.2112e-05,0.0001088,0.0,0 STARLINK-5797,1 55784U 23028AV  23090.46711470  .00010880  00000-0  92112-4 0  9994,2 55784  70.0019  77.2815 0002429 305.8692  54.2278 15.69931990  5025,6737.229,91.724,360.73,357.457,0.0
55784.0,STARLINK-5797,PAYLOAD,2023-04-01 02:30:09,15.69918078,0.0003432,70.0003,75.4875,267.3882,92.6921,2.5783e-07,-1.82e-06,0.0,0 STARLINK-5797,1 55784U 23028AV  23091.10428231 -.00000182  00000-0  25783-6 0  9993,2 55784  70.0003  75.4875 0003432 267.3882  92.6921 15.69918078  5126,6737.268,91.725,361.446,356.821,0.0
55784.0,STARLINK-5797,PAYLOAD,2023-04-01 11:40:40,15.69925837,0.0003433,69.9997,74.4142,272.7061,87.3741,2.1733e-05,2.401e-05,0.0,0 STARLINK-5797,1 55784U 23028AV  23091.48658113  .00002401  00000-0  21733-4 0  9992,2 55784  69.9997  74.4142 0003433 272.7061  87.3741 15.69925837  5189,6737.246,91.724,361.424,356.798,0.0
55784.0,STARLINK-5797,PAYLOAD,2023-04-02 09:05:13,15.6989673,0.0002547,70.0014,71.9077,272.6223,87.4681,-7.028e-05,-8.643e-05,0.0,0 STARLINK-5797,1 55784U 23028AV  23092.37862785 -.00008643  00000-0 -70280-4 0  9990,2 55784  70.0014  71.9077 0002547 272.6223  87.4681 15.69896730  5324,6737.329,91.726,360.91,357.478,0.0
55784.0,STARLINK-5797,PAYLOAD,2023-04-02 10:36:58,15.69898645,0.0002649,70.0014,71.7281,283.2825,76.8075,-5.9572e-05,-7.36e-05,0.0,0 STARLINK-5797,1 55784U 23028AV  23092.44234363 -.00007360  00000-0 -59572-4 0  9999,2 55784  70.0014  71.7281 0002649 283.2825  76.8075 15.69898645  5335,6737.324,91.726,360.974,357.404,0.0
